{"type": "FeatureCollection", "features": [ {"type": "Feature", "properties": {"norad_id": 28659, "name": "DIRECTV 8", "group": "intelsat", "lat": 0.033727458428227435, "lon": 11.188806896564108, "alt_km": 35790.9952341207, "timestamp": "2025-12-04T03:47:54.221438+00:00", "meta": {"OBJECT_NAME": "DIRECTV 8", "OBJECT_ID": "2005-019A", "EPOCH": "2025-12-03T13:11:23.970336", "MEAN_MOTION": 1.00271387, "ECCENTRICITY": 0.0003317, "INCLINATION": 0.0159, "RA_OF_ASC_NODE": 313.723, "ARG_OF_PERICENTER": 307.4346, "MEAN_ANOMALY": 250.2929, "EPHEMERIS_TYPE": 0, "CLASSIFICATION_TYPE": "U", "NORAD_CAT_ID": 28659, "ELEMENT_SET_NO": 999, "REV_AT_EPOCH": 7511, "BSTAR": 0, "MEAN_MOTION_DOT": 1.9e-07, "MEAN_MOTION_DDOT": 0}, "tle": {"line1": "1 28659U 05019A   25337.54958299  .00000019  00000+0  00000+0 0  9994", "line2": "2 28659   0.0159 313.7230 0003317 307.4346 250.2929  1.00271387 75119"}}, "geometry": {"type": "Point", "coordinates": [11.188806896564108, 0.033727458428227435]}}, {"type": "Feature", "properties": {"norad_id": 28702, "name": "GALAXY 28 (G-28)", "group": "intelsat", "lat": -1.7663532752334603, "lon": 41.543424545055025, "alt_km": 35795.934566497126, "timestamp": "2025-12-04T03:47:54.221477+00:00", "meta": {"OBJECT_NAME": "GALAXY 28 (G-28)", "OBJECT_ID": "2005-022A", "EPOCH": "2025-12-03T13:20:00.644928", "MEAN_MOTION": 1.00272256, "ECCENTRICITY": 0.0002642, "INCLINATION": 2.7952, "RA_OF_ASC_NODE": 81.3879, "ARG_OF_PERICENTER": 169.944, "MEAN_ANOMALY": 292.6137, "EPHEMERIS_TYPE": 0, "CLASSIFICATION_TYPE": "U", "NORAD_CAT_ID": 28702, "ELEMENT_SET_NO": 999, "REV_AT_EPOCH": 5001, "BSTAR": 0, "MEAN_MOTION_DOT": -1.7e-06, "MEAN_MOTION_DDOT": 0}, "tle": {"line1": "1 28702U 05022A   25337.55556302 -.00000170  00000+0  00000+0 0  9996", "line2": "2 28702   2.7952  81.3879 0002642 169.9440 292.6137  1.00272256 50010"}}, "geometry": {"type": "Point", "coordinates": [41.543424545055025, -1.7663532752334603]}}, {"type": "Feature", "properties": {"norad_id": 29236, "name": "GALAXY 16 (G-16)", "group": "intelsat", "lat": 0.017587772193388706, "lon": 31.200112676819252, "alt_km": 35795.36045419962, "timestamp": "2025-12-04T03:47:54.221492+00:00", "meta": {"OBJECT_NAME": "GALAXY 16 (G-16)", "OBJECT_ID": "2006-023A", "EPOCH": "2025-12-03T13:17:08.421216", "MEAN_MOTION": 1.00270132, "ECCENTRICITY": 0.0002906, "INCLINATION": 0.0242, "RA_OF_ASC_NODE": 220.5298, "ARG_OF_PERICENTER": 35.0993, "MEAN_ANOMALY": 277.2871, "EPHEMERIS_TYPE": 0, "CLASSIFICATION_TYPE": "U", "NORAD_CAT_ID": 29236, "ELEMENT_SET_NO": 999, "REV_AT_EPOCH": 7101, "BSTAR": 0, "MEAN_MOTION_DOT": -1.09e-06, "MEAN_MOTION_DDOT": 0}, "tle": {"line1": "1 29236U 06023A   25337.55356969 -.00000109  00000+0  00000+0 0  9990", "line2": "2 29236   0.0242 220.5298 0002906  35.0993 277.2871  1.00270132 71015"}}, "geometry": {"type": "Point", "coordinates": [31.200112676819252, 0.017587772193388706]}}, {"type": "Feature", "properties": {"norad_id": 29494, "name": "DIRECTV 9S", "group": "intelsat", "lat": -1.5313656050310178, "lon": 29.02708422877397, "alt_km": 35796.58541698805, "timestamp": "2025-12-04T03:47:54.221504+00:00", "meta": {"OBJECT_NAME": "DIRECTV 9S", "OBJECT_ID": "2006-043A", "EPOCH": "2025-12-03T13:16:30.979776", "MEAN_MOTION": 1.00270563, "ECCENTRICITY": 0.0003202, "INCLINATION": 1.9146, "RA_OF_ASC_NODE": 83.3064, "ARG_OF_PERICENTER": 168.5637, "MEAN_ANOMALY": 278.696, "EPHEMERIS_TYPE": 0, "CLASSIFICATION_TYPE": "U", "NORAD_CAT_ID": 29494, "ELEMENT_SET_NO": 999, "REV_AT_EPOCH": 4942, "BSTAR": 0, "MEAN_MOTION_DOT": -9.6e-07, "MEAN_MOTION_DDOT": 0}, "tle": {"line1": "1 29494U 06043A   25337.55313634 -.00000096  00000+0  00000+0 0  9995", "line2": "2 29494   1.9146  83.3064 0003202 168.5637 278.6960  1.00270563 49429"}}, "geometry": {"type": "Point", "coordinates": [29.02708422877397, -1.5313656050310178]}}, {"type": "Feature", "properties": {"norad_id": 31307, "name": "GALAXY 17 (G-17)", "group": "intelsat", "lat": -1.4694313540787325, "lon": 45.23625117941744, "alt_km": 35811.840894399254, "timestamp": "2025-12-04T03:47:54.221516+00:00", "meta": {"OBJECT_NAME": "GALAXY 17 (G-17)", "OBJECT_ID": "2007-016B", "EPOCH": "2025-12-03T09:55:35.228352", "MEAN_MOTION": 1.00270439, "ECCENTRICITY": 0.0006113, "INCLINATION": 2.4746, "RA_OF_ASC_NODE": 82.392, "ARG_OF_PERICENTER": 156.6812, "MEAN_ANOMALY": 257.3305, "EPHEMERIS_TYPE": 0, "CLASSIFICATION_TYPE": "U", "NORAD_CAT_ID": 31307, "ELEMENT_SET_NO": 999, "REV_AT_EPOCH": 6784, "BSTAR": 0, "MEAN_MOTION_DOT": -1.89e-06, "MEAN_MOTION_DDOT": 0}, "tle": {"line1": "1 31307U 07016B   25337.41360218 -.00000189  00000+0  00000+0 0  9990", "line2": "2 31307   2.4746  82.3920 0006113 156.6812 257.3305  1.00270439 67849"}}, "geometry": {"type": "Point", "coordinates": [45.23625117941744, -1.4694313540787325]}}, {"type": "Feature", "properties": {"norad_id": 31862, "name": "DIRECTV 10", "group": "intelsat", "lat": 0.021443878905989717, "lon": 27.392197090750994, "alt_km": 35787.472856459484, "timestamp": "2025-12-04T03:47:54.221528+00:00", "meta": {"OBJECT_NAME": "DIRECTV 10", "OBJECT_ID": "2007-032A", "EPOCH": "2025-12-03T08:07:45.558336", "MEAN_MOTION": 1.00270968, "ECCENTRICITY": 2.91e-05, "INCLINATION": 0.0057, "RA_OF_ASC_NODE": 272.492, "ARG_OF_PERICENTER": 275.3626, "MEAN_ANOMALY": 263.7199, "EPHEMERIS_TYPE": 0, "CLASSIFICATION_TYPE": "U", "NORAD_CAT_ID": 31862, "ELEMENT_SET_NO": 999, "REV_AT_EPOCH": 4363, "BSTAR": 0, "MEAN_MOTION_DOT": -8.4e-07, "MEAN_MOTION_DDOT": 0}, "tle": {"line1": "1 31862U 07032A   25337.33872174 -.00000084  00000+0  00000+0 0  9998", "line2": "2 31862   0.0057 272.4920 0000291 275.3626 263.7199  1.00270968 43639"}}, "geometry": {"type": "Point", "coordinates": [27.392197090750994, 0.021443878905989717]}}, {"type": "Feature", "properties": {"norad_id": 32253, "name": "INTELSAT 11 (IS-11)", "group": "intelsat", "lat": -2.221837292489675, "lon": 33.768129902364656, "alt_km": 36168.05029792106, "timestamp": "2025-12-04T03:47:54.221539+00:00", "meta": {"OBJECT_NAME": "INTELSAT 11 (IS-11)", "OBJECT_ID": "2007-044B", "EPOCH": "2025-12-03T09:53:12.955200", "MEAN_MOTION": 0.99047262, "ECCENTRICITY": 0.0009282, "INCLINATION": 3.0539, "RA_OF_ASC_NODE": 81.0808, "ARG_OF_PERICENTER": 161.1046, "MEAN_ANOMALY": 245.3925, "EPHEMERIS_TYPE": 0, "CLASSIFICATION_TYPE": "U", "NORAD_CAT_ID": 32253, "ELEMENT_SET_NO": 999, "REV_AT_EPOCH": 6651, "BSTAR": 0, "MEAN_MOTION_DOT": 7e-08, "MEAN_MOTION_DDOT": 0}, "tle": {"line1": "1 32253U 07044B   25337.41195550  .00000007  00000+0  00000+0 0  9995", "line2": "2 32253   3.0539  81.0808 0009282 161.1046 245.3925  0.99047262 66519"}}, "geometry": {"type": "Point", "coordinates": [33.768129902364656, -2.221837292489675]}}, {"type": "Feature", "properties": {"norad_id": 32388, "name": "HORIZONS-2", "group": "intelsat", "lat": -0.9123891595225333, "lon": 56.45079350448769, "alt_km": 35804.915750005384, "timestamp": "2025-12-04T03:47:54.221551+00:00", "meta": {"OBJECT_NAME": "HORIZONS-2", "OBJECT_ID": "2007-063B", "EPOCH": "2025-12-03T09:58:49.916064", "MEAN_MOTION": 1.00272062, "ECCENTRICITY": 0.0004974, "INCLINATION": 2.0954, "RA_OF_ASC_NODE": 83.0628, "ARG_OF_PERICENTER": 180.814, "MEAN_ANOMALY": 244.5524, "EPHEMERIS_TYPE": 0, "CLASSIFICATION_TYPE": "U", "NORAD_CAT_ID": 32388, "ELEMENT_SET_NO": 999, "REV_AT_EPOCH": 6585, "BSTAR": 0, "MEAN_MOTION_DOT": -2.36e-06, "MEAN_MOTION_DDOT": 0}, "tle": {"line1": "1 32388U 07063B   25337.41585551 -.00000236  00000+0  00000+0 0  9994", "line2": "2 32388   2.0954  83.0628 0004974 180.8140 244.5524  1.00272062 65859"}}, "geometry": {"type": "Point", "coordinates": [56.45079350448769, -0.9123891595225333]}}, {"type": "Feature", "properties": {"norad_id": 32729, "name": "DIRECTV 11", "group": "intelsat", "lat": 0.008272039043705602, "lon": 30.985837742263026, "alt_km": 35788.045533237484, "timestamp": "2025-12-04T03:47:54.221563+00:00", "meta": {"OBJECT_NAME": "DIRECTV 11", "OBJECT_ID": "2008-013A", "EPOCH": "2025-12-03T08:08:52.950336", "MEAN_MOTION": 1.00268433, "ECCENTRICITY": 2.81e-05, "INCLINATION": 0.0112, "RA_OF_ASC_NODE": 227.5771, "ARG_OF_PERICENTER": 311.5736, "MEAN_ANOMALY": 276.3071, "EPHEMERIS_TYPE": 0, "CLASSIFICATION_TYPE": "U", "NORAD_CAT_ID": 32729, "ELEMENT_SET_NO": 999, "REV_AT_EPOCH": 4363, "BSTAR": 0, "MEAN_MOTION_DOT": -1.07e-06, "MEAN_MOTION_DDOT": 0}, "tle": {"line1": "1 32729U 08013A   25337.33950174 -.00000107  00000+0  00000+0 0  9994", "line2": "2 32729   0.0112 227.5771 0000281 311.5736 276.3071  1.00268433 43636"}}, "geometry": {"type": "Point", "coordinates": [30.985837742263026, 0.008272039043705602]}}, {"type": "Feature", "properties": {"norad_id": 32951, "name": "GALAXY 18 (G-18)", "group": "intelsat", "lat": 0.010761424830128756, "lon": 7.235174576966004, "alt_km": 35790.59863987579, "timestamp": "2025-12-04T03:47:54.221575+00:00", "meta": {"OBJECT_NAME": "GALAXY 18 (G-18)", "OBJECT_ID": "2008-024A", "EPOCH": "2025-12-03T08:01:53.619168", "MEAN_MOTION": 1.00272272, "ECCENTRICITY": 0.0003386, "INCLINATION": 0.018, "RA_OF_ASC_NODE": 10.9677, "ARG_OF_PERICENTER": 247.1815, "MEAN_ANOMALY": 171.7557, "EPHEMERIS_TYPE": 0, "CLASSIFICATION_TYPE": "U", "NORAD_CAT_ID": 32951, "ELEMENT_SET_NO": 999, "REV_AT_EPOCH": 4388, "BSTAR": 0, "MEAN_MOTION_DOT": 4.4e-07, "MEAN_MOTION_DDOT": 0}, "tle": {"line1": "1 32951U 08024A   25337.33464837  .00000044  00000+0  00000+0 0  9998", "line2": "2 32951   0.0180  10.9677 0003386 247.1815 171.7557  1.00272272 43888"}}, "geometry": {"type": "Point", "coordinates": [7.235174576966004, 0.010761424830128756]}}]}